     2.100          NAVIGATION                              RINEX VERSION / TYPE
fic2rin                                 12/07/2012 01:20:52 PGM / RUN BY / DATE
                                                            END OF HEADER
14 12 12  6  1 59 44.0  .217842869461D-03  .568434188608D-12  .000000000000D+00
     .800000000000D+01 -.359375000000D+01  .428303554848D-08 -.247574124589D+01
    -.104308128357D-06  .678948243149D-02  .720657408237D-05  .515367985153D+04
     .352784000000D+06  .109896063805D-06 -.245308718554D+01 -.353902578354D-07
     .976508681540D+00  .247875000000D+03 -.201954468772D+01 -.789390024120D-08
    -.203222750758D-09  .100000000000D+01  .171700000000D+04  .000000000000D+00
     .240000000000D+01  .000000000000D+00 -.884756445885D-08  .800000000000D+01
     .346986000000D+06  .400000000000D+01
 6 12 12  6  1 59 44.0  .434036366642D-03 -.127329258248D-10  .000000000000D+00
     .500000000000D+01 -.637500000000D+02  .497342144868D-08 -.160761031062D+01
    -.329688191414D-05  .746774568688D-02  .734813511372D-05  .515368751717D+04
     .352784000000D+06 -.108033418655D-06  .559392053199D+00 -.670552253723D-07
     .939722816462D+00  .228312500000D+03 -.407681513320D+00 -.837892044424D-08
     .821462788651D-11  .100000000000D+01  .171700000000D+04  .000000000000D+00
     .240000000000D+01  .000000000000D+00 -.512227416039D-08  .500000000000D+01
     .347166000000D+06  .400000000000D+01
25 12 12  6  1 59 44.0  .548344105482D-04  .216004991671D-11  .000000000000D+00
     .000000000000D+00 -.353125000000D+01  .450090176634D-08 -.980629742251D-01
    -.281259417534D-06  .186739384662D-02  .528991222382D-05  .515362177467D+04
     .352784000000D+06 -.279396772385D-07 -.434768793294D+00  .130385160446D-07
     .971169832230D+00  .280031250000D+03  .650530982027D+00 -.823069998455D-08
     .692886004340D-10  .100000000000D+01  .171700000000D+04  .000000000000D+00
     .240000000000D+01  .000000000000D+00  .512227416039D-08  .000000000000D+00
     .350676000000D+06  .400000000000D+01
 6 12 12  6  3 59 44.0  .433944631368D-03 -.127329258248D-10  .000000000000D+00
     .550000000000D+02 -.648437500000D+02  .506342519770D-08 -.557608877482D+00
    -.339373946190D-05  .746724894270D-02  .690110027790D-05  .515368487358D+04
     .359984000000D+06  .540167093277D-07  .559332458305D+00 -.238418579102D-06
     .939722373197D+00  .238437500000D+03 -.407506437136D+00 -.842999400023D-08
    -.155006456641D-09  .100000000000D+01  .171700000000D+04  .000000000000D+00
     .240000000000D+01  .000000000000D+00 -.512227416039D-08  .550000000000D+02
     .352806000000D+06  .400000000000D+01
14 12 12  6  3 59 44.0  .217847060412D-03  .568434188608D-12  .000000000000D+00
     .230000000000D+02 -.434375000000D+01  .431196532495D-08 -.142555404995D+01
    -.670552253723D-07  .678939209320D-02  .727176666260D-05  .515368004799D+04
     .359984000000D+06  .143423676491D-06 -.245314383558D+01  .102445483208D-06
     .976506806080D+00  .247000000000D+03 -.201955672461D+01 -.798247535928D-08
    -.252153360342D-09  .100000000000D+01  .171700000000D+04  .000000000000D+00
     .240000000000D+01  .000000000000D+00 -.884756445885D-08  .230000000000D+02
     .352806000000D+06  .400000000000D+01
25 12 12  6  3 59 44.0  .548497773707D-04  .216004991671D-11  .000000000000D+00
     .100000000000D+01 -.284375000000D+01  .455626121514D-08  .952195357570D+00
    -.115483999252D-06  .186742539518D-02  .527501106262D-05  .515362176323D+04
     .359984000000D+06  .279396772385D-07 -.434828598848D+00  .130385160446D-07
     .971170399842D+00  .281218750000D+03  .650485508681D+00 -.826998733531D-08
     .129291099779D-09  .100000000000D+01  .171700000000D+04  .000000000000D+00
     .240000000000D+01  .000000000000D+00  .512227416039D-08  .100000000000D+01
     .352806000000D+06  .400000000000D+01
 1 12 12  6  4  0  0.0  .286006834358D-03  .193267624127D-11  .000000000000D+00
     .970000000000D+02  .671875000000D+01  .438089676765D-08  .265111994823D+01
     .415369868279D-06  .147516001016D-02  .984594225883D-05  .515371485710D+04
     .360000000000D+06  .931322574615D-08  .166622234291D+01 -.204890966415D-07
     .959722081328D+00  .189781250000D+03  .520429883891D+00 -.794425948172D-08
     .136434254463D-09  .100000000000D+01  .171700000000D+04  .000000000000D+00
     .240000000000D+01  .000000000000D+00  .838190317154D-08  .970000000000D+02
     .352806000000D+06  .400000000000D+01
 2 12 12  6  4  0  0.0  .410866457969D-03  .102318153949D-11  .000000000000D+00
     .570000000000D+02  .156562500000D+02  .471162482951D-08 -.263517321807D+01
     .730156898499D-06  .117156400811D-01  .110547989607D-04  .515357668686D+04
     .360000000000D+06 -.596046447754D-07  .164833041592D+01 -.139698386192D-06
     .938245128761D+00  .152500000000D+03 -.271105786267D+01 -.797854662421D-08
     .243938732456D-09  .100000000000D+01  .171700000000D+04  .000000000000D+00
     .240000000000D+01  .000000000000D+00 -.176951289177D-07  .570000000000D+02
     .352806000000D+06  .400000000000D+01
 3 12 12  6  4  0  0.0  .137862283736D-03  .511590769747D-11  .000000000000D+00
     .370000000000D+02 -.680312500000D+02  .509842665565D-08 -.245133747701D+01
    -.345706939697D-05  .158801113721D-01  .611506402493D-05  .515376218987D+04
     .360000000000D+06  .191852450371D-06  .481215883476D+00 -.577419996262D-07
     .933024556378D+00  .243968750000D+03  .125683357932D+01 -.817676916669D-08
    -.335728270144D-10  .100000000000D+01  .171700000000D+04  .000000000000D+00
     .240000000000D+01  .000000000000D+00 -.465661287308D-08  .370000000000D+02
     .352806000000D+06  .400000000000D+01
 4 12 12  6  4  0  0.0  .668293796480D-04  .111413100967D-10  .000000000000D+00
     .780000000000D+02  .119062500000D+02  .493806283300D-08  .661178526980D+00
     .808387994766D-06  .104229868157D-01  .101737678051D-04  .515370492172D+04
     .360000000000D+06 -.232830643654D-06  .166497787653D+01  .558793544769D-07
     .937290699063D+00  .173906250000D+03  .940522561591D+00 -.828141638280D-08
     .403588239642D-10  .100000000000D+01  .171700000000D+04  .000000000000D+00
     .240000000000D+01  .000000000000D+00 -.651925802231D-08  .780000000000D+02
     .352806000000D+06  .400000000000D+01
 5 12 12  6  4  0  0.0 -.371051020920D-03 -.238742359215D-11  .000000000000D+00
     .300000000000D+01  .398437500000D+02  .499485091273D-08 -.539633795308D+00
     .218674540520D-05  .313279859256D-02  .611692667007D-05  .515379500961D+04
     .360000000000D+06  .614672899246D-07  .271274233384D+01 -.186264514923D-07
     .949855525432D+00  .252031250000D+03  .286602235368D+00 -.839392106908D-08
     .135362781260D-09  .100000000000D+01  .171700000000D+04  .000000000000D+00
     .240000000000D+01  .000000000000D+00 -.102445483208D-07  .300000000000D+01
     .352806000000D+06  .400000000000D+01
 7 12 12  6  4  0  0.0  .153746455908D-03  .443378667114D-11  .000000000000D+00
     .105000000000D+03  .225625000000D+02  .419338895720D-08  .227871457146D+01
     .122748315334D-05  .605957850348D-02  .847689807415D-05  .515371926689D+04
     .360000000000D+06 -.154599547386D-06 -.145625702704D+01  .651925802231D-07
     .975613802848D+00  .226875000000D+03 -.292693122147D+01 -.792211570220D-08
     .678599694973D-10  .100000000000D+01  .171700000000D+04  .000000000000D+00
     .340000000000D+01  .000000000000D+00 -.111758708954D-07  .105000000000D+03
     .352806000000D+06  .400000000000D+01
 8 12 12  6  4  0  0.0  .326754525304D-05  .227373675443D-12  .000000000000D+00
     .340000000000D+02  .320000000000D+02  .376801409577D-08  .167110774759D+01
     .185146927834D-05  .127426729305D-01  .856257975101D-05  .515362715912D+04
     .360000000000D+06 -.596046447754D-07 -.136872597604D+01  .223517417908D-06
     .998079328159D+00  .237562500000D+03 -.289307385653D+01 -.777675250439D-08
    -.357157734196D-10  .100000000000D+01  .171700000000D+04  .000000000000D+00
     .340000000000D+01  .000000000000D+00 -.419095158577D-08  .340000000000D+02
     .352806000000D+06  .400000000000D+01
 9 12 12  6  4  0  0.0  .204610638320D-03  .261479726760D-11  .000000000000D+00
     .140000000000D+03  .272812500000D+02  .389159067180D-08  .187527237530D+01
     .117905437946D-05  .170409294078D-01  .918284058571D-05  .515284805870D+04
     .360000000000D+06  .257045030594D-06 -.148063991130D+01 -.244006514549D-06
     .984293899998D+00  .209875000000D+03  .163388709302D+01 -.762531762509D-08
     .578595529398D-10  .100000000000D+01  .171700000000D+04  .000000000000D+00
     .340000000000D+01  .000000000000D+00 -.558793544769D-08  .140000000000D+03
     .352806000000D+06  .400000000000D+01
10 12 12  6  4  0  0.0 -.610807910562D-04 -.147792889038D-11  .000000000000D+00
     .500000000000D+02  .382500000000D+02  .520307387177D-08 -.211344105913D+00
     .215321779251D-05  .120894436259D-01  .586733222008D-05  .515373841476D+04
     .360000000000D+06  .819563865662D-07  .273317946911D+01  .152736902237D-06
     .944721028223D+00  .259125000000D+03  .778232454174D+00 -.863071664685D-08
     .101075638777D-09  .100000000000D+01  .171700000000D+04  .000000000000D+00
     .340000000000D+01  .000000000000D+00 -.279396772385D-08  .500000000000D+02
     .352806000000D+06  .400000000000D+01
11 12 12  6  4  0  0.0 -.330349430442D-03 -.386535248253D-11  .000000000000D+00
     .920000000000D+02 -.263437500000D+02  .592953270312D-08  .247041364788D+01
    -.145472586155D-05  .137875255896D-01  .937469303608D-05  .515368536186D+04
     .360000000000D+06  .119209289551D-06  .138194266115D+01 -.184401869774D-06
     .888109507154D+00  .157531250000D+03  .112743660121D+01 -.850463996668D-08
     .457161899771D-10  .100000000000D+01  .171700000000D+04  .000000000000D+00
     .240000000000D+01  .000000000000D+00 -.116415321827D-07  .920000000000D+02
     .352806000000D+06  .400000000000D+01
